
# Worst residual: 9.57 km
# MJD 58483.000000 (2018 Dec 31  0:00)
WE0913A = DSCOVR object = 2015-007B = NORAD 40391
1 40391U 15007B   18365.49919926  .00000000  00000-0  00000-0 2  1615
2 40391 035.4920 313.3729 8384409 226.0283 251.3156 00.06302387    01
